{
    "links": {
        "self": "http://www.neowsapp.com/rest/v1/neo/3789374?api_key=iIulBulltgU6a56xZRHN4H3l9WmuAYTsLGpBGhQ2"
    },
    "id": "3789374",
    "neo_reference_id": "3789374",
    "name": "(2017 VH13)",
    "designation": "2017 VH13",
    "nasa_jpl_url": "http://ssd.jpl.nasa.gov/sbdb.cgi?sstr=3789374",
    "absolute_magnitude_h": 27.2,
    "estimated_diameter": {
        "kilometers": {
            "estimated_diameter_min": 0.0096506147,
            "estimated_diameter_max": 0.0215794305
        },
        "meters": {
            "estimated_diameter_min": 9.6506146958,
            "estimated_diameter_max": 21.5794304844
        },
        "miles": {
            "estimated_diameter_min": 0.0059966121,
            "estimated_diameter_max": 0.0134088323
        },
        "feet": {
            "estimated_diameter_min": 31.6621227185,
            "estimated_diameter_max": 70.7986587106
        }
    },
    "is_potentially_hazardous_asteroid": false,
    "close_approach_data": [
        {
            "close_approach_date": "2017-11-10",
            "close_approach_date_full": "2017-Nov-10 12:07",
            "epoch_date_close_approach": 1510315620000,
            "relative_velocity": {
                "kilometers_per_second": "6.4611067745",
                "kilometers_per_hour": "23259.9843881024",
                "miles_per_hour": "14452.8497438184"
            },
            "miss_distance": {
                "astronomical": "0.0384682263",
                "lunar": "14.9641400307",
                "kilometers": "5754764.717157981",
                "miles": "3575844.9811068978"
            },
            "orbiting_body": "Earth"
        },
        {
            "close_approach_date": "2109-09-27",
            "close_approach_date_full": "2109-Sep-27 16:36",
            "epoch_date_close_approach": 4409742960000,
            "relative_velocity": {
                "kilometers_per_second": "10.8374251836",
                "kilometers_per_hour": "39014.7306610777",
                "miles_per_hour": "24242.236393268"
            },
            "miss_distance": {
                "astronomical": "0.1746703696",
                "lunar": "67.9467737744",
                "kilometers": "26130315.244272752",
                "miles": "16236624.9904858976"
            },
            "orbiting_body": "Earth"
        }
    ],
    "orbital_data": {
        "orbit_id": "2",
        "orbit_determination_date": "2017-11-17 06:20:57",
        "first_observation_date": "2017-11-13",
        "last_observation_date": "2017-11-17",
        "data_arc_in_days": 4,
        "observations_used": 20,
        "orbit_uncertainty": "8",
        "minimum_orbit_intersection": ".0328824",
        "jupiter_tisserand_invariant": "3.704",
        "epoch_osculation": "2458071.5",
        "eccentricity": ".4841299520636143",
        "semi_major_axis": "1.981584645672776",
        "inclination": "3.111503111788385",
        "ascending_node_longitude": "233.9237355300546",
        "orbital_period": "1018.866703025405",
        "perihelion_distance": "1.022240166153221",
        "perihelion_argument": "165.1797479264096",
        "aphelion_distance": "2.940929125192332",
        "perihelion_time": "2458060.968025047985",
        "mean_anomaly": "3.72130227778271",
        "mean_motion": ".3533337569389816",
        "equinox": "J2000",
        "orbit_class": {
            "orbit_class_type": "AMO",
            "orbit_class_description": "Near-Earth asteroid orbits similar to that of 1221 Amor",
            "orbit_class_range": "1.017 AU < q (perihelion) < 1.3 AU"
        }
    },
    "is_sentry_object": false
}